OBJECT_NAME,OBJECT_ID,EPOCH,MEAN_MOTION,ECCENTRICITY,INCLINATION,RA_OF_ASC_NODE,ARG_OF_PERICENTER,MEAN_ANOMALY,EPHEMERIS_TYPE,CLASSIFICATION_TYPE,NORAD_CAT_ID,ELEMENT_SET_NO,REV_AT_EPOCH,BSTAR,MEAN_MOTION_DOT,MEAN_MOTION_DDOT
STARLINK-2728,2021-040BC,2026-06-29T22:51:36.415584,15.31691148,.00015463,53.1594,28.8352,84.2295,275.8882,0,U,48478,999,28369,-.21811276E-3,-.7125E-4,0
STARLINK-2755,2021-040BD,2026-06-29T20:10:34.895424,15.31723200,.0000799,53.1604,29.6096,97.0856,263.0237,0,U,48479,999,28367,.11673512E-2,.36061E-3,0
STARLINK-2706,2021-040BF,2026-06-29T20:45:30.841920,15.31706322,.00011437,53.1602,31.5990,79.4016,280.7114,0,U,48481,999,28365,.17241074E-3,.499E-4,0
STARLINK-2525,2021-040BG,2026-06-30T13:18:53.809344,15.31695459,.0001463,53.1604,28.8010,101.6781,258.4384,0,U,48482,999,28375,.9354054E-5,-.75E-6,0
STARLINK-2531,2021-040BH,2026-06-29T20:25:29.760960,15.31696922,.00010212,53.1604,32.2591,81.1017,279.0100,0,U,48483,999,28364,.45922131E-4,.106E-4,0
STARLINK-2500,2021-040BK,2026-06-30T14:32:40.432128,15.31702405,.00006801,53.1585,28.3879,79.8768,280.2310,0,U,48485,999,28376,-.26053122E-4,-.1173E-4,0
STARLINK-2494,2021-040BM,2026-06-29T23:46:49.761408,15.31702583,.00009234,53.1597,31.5536,76.1988,283.9116,0,U,48487,999,28367,.13009191E-3,.3674E-4,0
STARLINK-2063,2021-041A,2026-06-30T18:23:11.103936,15.31709154,.00007837,53.1596,320.7152,87.8367,272.2724,0,U,48553,999,28260,.63792039E-4,.1616E-4,0
STARLINK-2139,2021-041B,2026-06-30T18:16:27.495840,15.31710536,.00009912,53.1591,320.6366,105.8246,254.2865,0,U,48554,999,28260,.24905745E-3,.7374E-4,0
STARLINK-2145,2021-041C,2026-06-29T17:27:58.254048,15.31694993,.00010619,53.1608,347.6915,69.0219,291.0896,0,U,48555,999,28211,.65807748E-4,.1677E-4,0
STARLINK-2151,2021-041D,2026-06-30T19:56:20.553216,15.31720537,.00006524,53.1607,336.0520,69.7401,290.3671,0,U,48556,999,28238,.92220499E-4,.25E-4,0
STARLINK-2155,2021-041E,2026-06-30T19:10:10.691904,15.31714118,.00008187,53.1592,320.6159,78.6613,281.4480,0,U,48557,999,28260,.24409009E-3,.722E-4,0
STARLINK-2166,2021-041F,2026-06-30T19:03:27.980640,15.31715949,.00010491,53.1594,320.6258,70.7547,289.3568,0,U,48558,999,28174,.18740971E-3,.5458E-4,0
STARLINK-2188,2021-041L,2026-06-30T03:03:42.542208,15.31707263,.00012678,53.1618,323.6093,78.1731,281.9412,0,U,48563,999,28250,.14861727E-3,.425E-4,0
STARLINK-2190,2021-041M,2026-06-30T18:29:52.274688,15.31715078,.00008553,53.1605,320.5947,84.7045,275.4054,0,U,48564,999,28260,.47655218E-4,.1115E-4,0
STARLINK-2214,2021-041P,2026-06-29T20:29:08.415168,15.31697860,.00012108,53.1611,347.0673,84.7811,275.3329,0,U,48566,999,28213,-.29082065E-3,-.9378E-4,0
STARLINK-2217,2021-041R,2026-06-30T18:56:48.333120,15.31702141,.00007484,53.1596,320.9476,68.6008,291.5074,0,U,48568,999,28259,.13974704E-3,.3974E-4,0
STARLINK-2219,2021-041S,2026-06-30T02:57:00.002880,15.31696838,.00015339,53.1608,323.6189,89.3588,270.7590,0,U,48569,999,28250,.11905485E-3,.333E-4,0
STARLINK-2221,2021-041U,2026-06-30T03:22:30.377568,15.31703256,.00008476,53.1608,336.3755,80.8971,279.2126,0,U,48571,999,28232,.31035619E-3,.9279E-4,0
STARLINK-2224,2021-041W,2026-06-30T19:23:42.075168,15.31712748,.00010689,53.1600,321.0841,95.8580,264.2543,0,U,48573,999,28259,.17063406E-3,.4936E-4,0
STARLINK-2225,2021-041X,2026-06-30T11:31:38.373600,15.31711236,.0000915,53.1619,296.2152,84.8061,275.3045,0,U,48574,999,28291,.65578179E-4,.1671E-4,0
STARLINK-2227,2021-041Y,2026-06-30T17:16:14.462112,15.31718065,.00011783,53.1600,282.3477,95.0202,265.0934,0,U,48575,999,28314,.20014163E-3,.5854E-4,0
STARLINK-2228,2021-041Z,2026-06-30T11:18:14.456160,15.31712139,.00010452,53.1596,296.3506,77.4611,282.6507,0,U,48576,999,28292,.20271349E-3,.5933E-4,0
STARLINK-2231,2021-041AA,2026-06-30T18:09:46.907424,15.31710214,.00009685,53.1594,320.8662,118.4084,241.7015,0,U,48577,999,28259,.69000915E-4,.1777E-4,0
STARLINK-2234,2021-041AD,2026-06-30T16:33:39.996000,15.31712352,.00011201,53.1595,295.2783,84.8444,275.2685,0,U,48580,999,28295,.13412423E-3,.3801E-4,0
STARLINK-2235,2021-041AE,2026-06-30T11:53:18.096576,15.31712942,.00010479,53.1589,299.0234,98.7412,261.3708,0,U,48581,999,28287,.29907916E-3,.8931E-4,0
