[
  {
    "name": "STARLINK-2728",
    "noradId": "48478",
    "line1": "1 48478U 21040BC  26180.95250481 -.00007125  00000+0 -21811-3 0  9991",
    "line2": "2 48478  53.1594  28.8352 0001546  84.2295 275.8882 15.31691148283691"
  },
  {
    "name": "STARLINK-2755",
    "noradId": "48479",
    "line1": "1 48479U 21040BD  26180.84068166  .00036061  00000+0  11674-2 0  9991",
    "line2": "2 48479  53.1604  29.6096 0000799  97.0856 263.0237 15.31723200283678"
  },
  {
    "name": "STARLINK-2706",
    "noradId": "48481",
    "line1": "1 48481U 21040BF  26180.86494030  .00004990  00000+0  17241-3 0  9992",
    "line2": "2 48481  53.1602  31.5990 0001143  79.4016 280.7114 15.31706322283654"
  },
  {
    "name": "STARLINK-2525",
    "noradId": "48482",
    "line1": "1 48482U 21040BG  26181.55478946 -.00000075  00000+0  93541-5 0  9998",
    "line2": "2 48482  53.1604  28.8010 0001463 101.6781 258.4384 15.31695459283751"
  },
  {
    "name": "STARLINK-2531",
    "noradId": "48483",
    "line1": "1 48483U 21040BH  26180.85103890  .00001060  00000+0  45922-4 0  9997",
    "line2": "2 48483  53.1604  32.2591 0001021  81.1017 279.0100 15.31696922283648"
  },
  {
    "name": "STARLINK-2500",
    "noradId": "48485",
    "line1": "1 48485U 21040BK  26181.60602352 -.00001173  00000+0 -26053-4 0  9991",
    "line2": "2 48485  53.1585  28.3879 0000680  79.8768 280.2310 15.31702405283764"
  },
  {
    "name": "STARLINK-2494",
    "noradId": "48487",
    "line1": "1 48487U 21040BM  26180.99085372  .00003674  00000+0  13009-3 0  9993",
    "line2": "2 48487  53.1597  31.5536 0000923  76.1988 283.9116 15.31702583283670"
  },
  {
    "name": "STARLINK-2063",
    "noradId": "48553",
    "line1": "1 48553U 21041A   26181.76610073  .00001616  00000+0  63792-4 0  9995",
    "line2": "2 48553  53.1596 320.7152 0000784  87.8367 272.2724 15.31709154282604"
  },
  {
    "name": "STARLINK-2139",
    "noradId": "48554",
    "line1": "1 48554U 21041B   26181.76142934  .00007374  00000+0  24906-3 0  9992",
    "line2": "2 48554  53.1591 320.6366 0000991 105.8246 254.2865 15.31710536282605"
  },
  {
    "name": "STARLINK-2145",
    "noradId": "48555",
    "line1": "1 48555U 21041C   26180.72775757  .00001677  00000+0  65808-4 0  9990",
    "line2": "2 48555  53.1608 347.6915 0001061  69.0219 291.0896 15.31694993282111"
  },
  {
    "name": "STARLINK-2151",
    "noradId": "48556",
    "line1": "1 48556U 21041D   26181.83079344  .00002500  00000+0  92220-4 0  9997",
    "line2": "2 48556  53.1607 336.0520 0000652  69.7401 290.3671 15.31720537282386"
  },
  {
    "name": "STARLINK-2155",
    "noradId": "48557",
    "line1": "1 48557U 21041E   26181.79873485  .00007220  00000+0  24409-3 0  9998",
    "line2": "2 48557  53.1592 320.6159 0000819  78.6613 281.4480 15.31714118282608"
  },
  {
    "name": "STARLINK-2166",
    "noradId": "48558",
    "line1": "1 48558U 21041F   26181.79407384  .00005458  00000+0  18741-3 0  9993",
    "line2": "2 48558  53.1594 320.6258 0001049  70.7547 289.3568 15.31715949281747"
  },
  {
    "name": "STARLINK-2188",
    "noradId": "48563",
    "line1": "1 48563U 21041L   26181.12757572  .00004250  00000+0  14862-3 0  9992",
    "line2": "2 48563  53.1618 323.6093 0001267  78.1731 281.9412 15.31707263282500"
  },
  {
    "name": "STARLINK-2190",
    "noradId": "48564",
    "line1": "1 48564U 21041M   26181.77074391  .00001115  00000+0  47655-4 0  9999",
    "line2": "2 48564  53.1605 320.5947 0000855  84.7045 275.4054 15.31715078282608"
  },
  {
    "name": "STARLINK-2214",
    "noradId": "48566",
    "line1": "1 48566U 21041P   26180.85356962 -.00009378  00000+0 -29082-3 0  9990",
    "line2": "2 48566  53.1611 347.0673 0001210  84.7811 275.3329 15.31697860282134"
  },
  {
    "name": "STARLINK-2217",
    "noradId": "48568",
    "line1": "1 48568U 21041R   26181.78944830  .00003974  00000+0  13975-3 0  9990",
    "line2": "2 48568  53.1596 320.9476 0000748  68.6008 291.5074 15.31702141282599"
  },
  {
    "name": "STARLINK-2219",
    "noradId": "48569",
    "line1": "1 48569U 21041S   26181.12291670  .00003330  00000+0  11905-3 0  9993",
    "line2": "2 48569  53.1608 323.6189 0001533  89.3588 270.7590 15.31696838282509"
  },
  {
    "name": "STARLINK-2221",
    "noradId": "48571",
    "line1": "1 48571U 21041U   26181.14062937  .00009279  00000+0  31036-3 0  9995",
    "line2": "2 48571  53.1608 336.3755 0000847  80.8971 279.2126 15.31703256282323"
  },
  {
    "name": "STARLINK-2224",
    "noradId": "48573",
    "line1": "1 48573U 21041W   26181.80812587  .00004936  00000+0  17063-3 0  9993",
    "line2": "2 48573  53.1600 321.0841 0001069  95.8580 264.2543 15.31712748282595"
  },
  {
    "name": "STARLINK-2225",
    "noradId": "48574",
    "line1": "1 48574U 21041X   26181.48030525  .00001671  00000+0  65578-4 0  9990",
    "line2": "2 48574  53.1619 296.2152 0000915  84.8061 275.3045 15.31711236282912"
  },
  {
    "name": "STARLINK-2227",
    "noradId": "48575",
    "line1": "1 48575U 21041Y   26181.71961183  .00005854  00000+0  20014-3 0  9992",
    "line2": "2 48575  53.1600 282.3477 0001178  95.0202 265.0934 15.31718065283148"
  },
  {
    "name": "STARLINK-2228",
    "noradId": "48576",
    "line1": "1 48576U 21041Z   26181.47100065  .00005933  00000+0  20271-3 0  9993",
    "line2": "2 48576  53.1596 296.3506 0001045  77.4611 282.6507 15.31712139282924"
  },
  {
    "name": "STARLINK-2231",
    "noradId": "48577",
    "line1": "1 48577U 21041AA  26181.75679291  .00001777  00000+0  69001-4 0  9994",
    "line2": "2 48577  53.1594 320.8662 0000968 118.4084 241.7015 15.31710214282597"
  },
  {
    "name": "STARLINK-2234",
    "noradId": "48580",
    "line1": "1 48580U 21041AD  26181.69004625  .00003801  00000+0  13412-3 0  9998",
    "line2": "2 48580  53.1595 295.2783 0001120  84.8444 275.2685 15.31712352282958"
  },
  {
    "name": "STARLINK-2235",
    "noradId": "48581",
    "line1": "1 48581U 21041AE  26181.49534834  .00008931  00000+0  29908-3 0  9993",
    "line2": "2 48581  53.1589 299.0234 0001047  98.7412 261.3708 15.31712942282870"
  }
]